ADRAS-J                 
1 58992U 24034A   24207.88359426  .00005458  00000+0  50335-3 0  9996
2 58992  98.2149 182.6747 0042018 281.8126  77.8382 14.94447276 23644
